<?xml version="1.0" encoding="UTF-8"?>
<kml xmlns="http://www.opengis.net/kml/2.2"><Document>
<Placemark><name>block-a</name><ExtendedData><Data name="crop"><value>wheat</value></Data><Data name="survey"><value>2026-01</value></Data></ExtendedData><Polygon><outerBoundaryIs><LinearRing><coordinates>77.2,28.61 77.21,28.61 77.21,28.62 77.2,28.62 77.2,28.61</coordinates></LinearRing></outerBoundaryIs><innerBoundaryIs><LinearRing><coordinates>77.203,28.613 77.207,28.613 77.207,28.617 77.203,28.617 77.203,28.613</coordinates></LinearRing></innerBoundaryIs></Polygon></Placemark>
<Placemark><name>block-b</name><ExtendedData><Data name="crop"><value>mustard</value></Data><Data name="survey"><value>2026-01</value></Data></ExtendedData><Polygon><outerBoundaryIs><LinearRing><coordinates>77.212,28.61 77.222,28.61 77.222,28.62 77.212,28.62 77.212,28.61</coordinates></LinearRing></outerBoundaryIs></Polygon></Placemark>
<Placemark><name>canal</name><ExtendedData><Data name="length_class"><value>primary</value></Data></ExtendedData><LineString><coordinates>77.2000,28.6100 77.2100,28.6200 77.2150,28.6180</coordinates></LineString></Placemark>
<Placemark><name>bench-mark</name><Point><coordinates>77.2050,28.6150</coordinates></Point></Placemark>
</Document></kml>
